ONEWEB-0709             
1 55172U 23004AJ  25258.45966167 -.00000218  00000+0 -65206-3 0  9999
2 55172  87.8775  75.8225 0001443 123.5491 236.5775 13.11417774129867
ONEWEB-0710             
1 55173U 23004AK  25258.46670838  .00000027  00000+0  35813-4 0  9996
2 55173  87.9042  60.5211 0001925  92.7461 267.3891 13.17651647131400
ONEWEB-0711             
1 55174U 23004AL  25258.50714210 -.00000111  00000+0 -34770-3 0  9991
2 55174  87.8778  75.7805 0002487  90.2143 269.9270 13.11414738129832
ONEWEB-0713             
1 55175U 23004AM  25258.52578683 -.00000507  00000+0 -14650-2 0  9999
2 55175  87.8773  75.7838 0001982  90.3413 269.7942 13.11418152129821
ONEWEB-0715             
1 55176U 23004AN  25258.52071039 -.00000525  00000+0 -15168-2 0  9998
2 55176  87.8771  75.7850 0001838 113.8729 246.2592 13.11417799129866
ONEWEB-0716             
1 55177U 23004AP  25258.45997072 -.00000025  00000+0 -97193-4 0  9990
2 55177  87.9044  60.5218 0001478  86.4872 273.6429 13.17648353131409
ONEWEB-0717             
1 55178U 23004AQ  25258.21527968  .00000097  00000+0  21555-3 0  9993
2 55178  87.9052  60.5339 0002466  97.6605 262.4807 13.17648900131425
ONEWEB-0719             
1 55179U 23004AR  25258.37727432  .00000004  00000+0 -22475-4 0  9991
2 55179  87.9048  60.4844 0001657  83.7924 276.3396 13.17647013131399
ONEWEB-0530             
1 55796U 23029A   25258.16906774  .00000008  00000+0 -13083-4 0  9997
2 55796  87.9273 329.3152 0002366  93.1502 266.9902 13.20771681124841
ONEWEB-0534             
1 55797U 23029B   25258.45947301  .00000091  00000+0  19074-3 0  9997
2 55797  87.9265 329.2615 0001828  96.3169 263.8172 13.20772397124886
ONEWEB-0556             
1 55798U 23029C   25258.46578957  .00000178  00000+0  40482-3 0  9999
2 55798  87.9274 329.2557 0002051  76.0896 284.0466 13.20772091124885
ONEWEB-0562             
1 55799U 23029D   25258.60466090  .00000034  00000+0  51042-4 0  9996
2 55799  87.9267 329.2151 0002615  83.0195 277.1236 13.20769376124907
ONEWEB-0563             
1 55800U 23029E   25258.59831907  .00000037  00000+0  57902-4 0  9994
2 55800  87.9274 329.2378 0001700  92.7919 267.3409 13.20774532124895
ONEWEB-0564             
1 55801U 23029F   25258.59203182 -.00000046  00000+0 -14390-3 0  9998
2 55801  87.9265 329.2208 0002248  92.8630 267.2761 13.20770435124907
ONEWEB-0638             
1 55802U 23029G   25258.53174381  .00000212  00000+0  53619-3 0  9991
2 55802  87.9088 344.4572 0001934  84.5898 275.5452 13.14504382123311
ONEWEB-0639             
1 55803U 23029H   25258.04440356  .00000040  00000+0  66820-4 0  9994
2 55803  87.9285 359.6988 0000735 117.1653 242.9555 13.19725720122610
ONEWEB-0640             
1 55804U 23029J   25258.54126258  .00000165  00000+0  41173-3 0  9993
2 55804  87.9084 344.4403 0001560  76.5874 283.5430 13.14504369123334
ONEWEB-0641             
1 55805U 23029K   25258.57037660  .00000068  00000+0  13754-3 0  9991
2 55805  87.9290 359.5679 0001621 103.0893 257.0421 13.19723603122694
ONEWEB-0642             
1 55806U 23029L   25258.56564224  .00000029  00000+0  40367-4 0  9990
2 55806  87.9279 359.6025 0001115 124.3724 235.7515 13.19725603122683
ONEWEB-0643             
1 55807U 23029M   25258.51111233 -.00000033  00000+0 -12438-3 0  9998
2 55807  87.9085 344.4299 0001558 123.8907 236.2371 13.14505225123309
ONEWEB-0644             
1 55808U 23029N   25258.56091128  .00000046  00000+0  83225-4 0  9999
2 55808  87.9283 359.6112 0001399 111.1359 248.9923 13.19724722122689
ONEWEB-0645             
1 55809U 23029P   25258.55695167  .00000074  00000+0  15238-3 0  9991
2 55809  87.9276 359.5977 0001542  94.0214 266.1095 13.19727388122682
ONEWEB-0646             
1 55810U 23029Q   25258.52443752  .00019708  00000+0  49281-1 0  9998
2 55810  87.9282 359.6027 0001474 111.9954 248.1335 13.19461042122669
ONEWEB-0648             
1 55811U 23029R   25258.47942237  .00000037  00000+0  64817-4 0  9995
2 55811  87.9072 344.4064 0000785  99.8373 260.2846 13.14498130123300
ONEWEB-0649             
1 55812U 23029S   25258.54985380  .00000076  00000+0  15646-3 0  9998
2 55812  87.9286 359.5889 0001330 101.1084 259.0199 13.19725718122703
ONEWEB-0650             
1 55813U 23029T   25258.54510476  .00000119  00000+0  26436-3 0  9996
2 55813  87.9285 359.6002 0001644 104.0118 256.1198 13.19727633122670
ONEWEB-0652             
1 55814U 23029U   25258.53650386  .00000209  00000+0  52950-3 0  9991
2 55814  87.9082 344.4103 0001987  98.8385 261.2970 13.14505447123281
ONEWEB-0653             
1 55815U 23029V   25258.52063654  .00000127  00000+0  30684-3 0  9996
2 55815  87.9086 344.4031 0001941  94.0788 266.0563 13.14505606123313
ONEWEB-0654             
1 55816U 23029W   25258.51587958  .00000030  00000+0  47432-4 0  9997
2 55816  87.9088 344.4022 0002216  96.4894 263.6488 13.14502999123339
ONEWEB-0656             
1 55817U 23029X   25258.58571281 -.00000068  00000+0 -19798-3 0  9993
2 55817  87.9278 329.1703 0002344  94.4039 265.7362 13.20769554124905
ONEWEB-0657             
1 55818U 23029Y   25258.54037276  .00000145  00000+0  33040-3 0  9991
2 55818  87.9281 359.6058 0002500 112.5128 247.6270 13.19727495122682
ONEWEB-0658             
1 55819U 23029Z   25258.53563739  .00000179  00000+0  41373-3 0  9994
2 55819  87.9298 359.5450 0001458 110.2272 249.9018 13.19727089122697
ONEWEB-0660             
1 55820U 23029AA  25258.56979276 -.00000146  00000+0 -42697-3 0  9992
2 55820  87.9092 344.3641 0001558  92.7317 267.3991 13.14505048123329
ONEWEB-0661             
1 55821U 23029AB  25258.60469751  .00000224  00000+0  57003-3 0  9992
2 55821  87.9087 344.4290 0001672  89.6549 270.4772 13.14504386123319
ONEWEB-0662             
1 55822U 23029AC  25258.48734052 -.00000086  00000+0 -26510-3 0  9995
2 55822  87.9082 344.4582 0001518  94.8133 265.3170 13.14504358123342
ONEWEB-0663             
1 55823U 23029AD  25258.56197588 -.00000055  00000+0 -16815-3 0  9995
2 55823  87.9292 329.2333 0001421  95.3651 264.7645 13.20845755124892
ONEWEB-0664             
1 55824U 23029AE  25258.57309699  .00000016  00000+0  64861-5 0  9996
2 55824  87.9276 329.2507 0001962  87.0185 273.1173 13.20771988124894
ONEWEB-0665             
1 55825U 23029AF  25258.60151585  .00000124  00000+0  29882-3 0  9992
2 55825  87.9093 344.4051 0001587  97.7778 262.3532 13.14504197123330
ONEWEB-0666             
1 55826U 23029AG  25258.56678581  .00000046  00000+0  82093-4 0  9995
2 55826  87.9275 329.2397 0002570 108.3760 251.7653 13.20771889124901
ONEWEB-0667             
1 55827U 23029AH  25258.56046978 -.00000030  00000+0 -10464-3 0  9992
2 55827  87.9277 329.1688 0001731  94.5229 265.6102 13.20771134124894
ONEWEB-0669             
1 55828U 23029AJ  25258.55573175  .00000030  00000+0  41743-4 0  9999
2 55828  87.9279 329.2094 0002516  89.1778 270.9644 13.20769834124894
ONEWEB-0670             
1 55829U 23029AK  25258.50320458 -.00000107  00000+0 -32367-3 0  9997
2 55829  87.9090 344.4448 0001746  87.4982 272.6347 13.14503725123346
ONEWEB-0671             
1 55830U 23029AL  25258.22762748  .00000121  00000+0  27111-3 0  9995
2 55830  87.9281 359.6603 0001693  95.2510 264.8816 13.19724930122639
ONEWEB-0672             
1 55831U 23029AM  25258.47523043  .00000049  00000+0  88782-4 0  9997
2 55831  87.9272 329.2084 0002202 100.8792 259.2590 13.20773856124887
ONEWEB-0673             
1 55832U 23029AN  25258.58301589 -.00000019  00000+0 -79906-4 0  9996
2 55832  87.9293 359.5567 0001634 103.6996 256.4319 13.19725403122685
ONEWEB-0674             
1 55833U 23029AP  25258.47148046  .00000211  00000+0  53338-3 0  9994
2 55833  87.9087 344.4339 0001804  83.9972 276.1363 13.14502024123327
ONEWEB-0675             
1 55834U 23029AQ  25258.52299610 -.00000056  00000+0 -17141-3 0  9996
2 55834  87.9281 359.6125 0001944 109.5073 250.6270 13.19725417122698
ONEWEB-0720             
1 55835U 23029AR  25258.51510221  .00000070  00000+0  14225-3 0  9994
2 55835  87.9281 359.6105 0001409 100.6803 259.4488 13.19726739122614
ONEWEB-0537             
1 56046U 23043A   25258.54158611  .00000007  00000+0 -15947-4 0  9993
2 56046  87.8989 283.5014 0002039  97.1842 262.9520 13.16592981122826
ONEWEB-0538             
1 56047U 23043B   25258.53523730 -.00002475  00000+0 -65085-2 0  9999
2 56047  87.8981 283.5145 0001844 100.4422 259.6917 13.16608006122839
ONEWEB-0546             
1 56048U 23043C   25258.59858908  .00000100  00000+0  22824-3 0  9990
2 56048  87.8992 283.4840 0002541  99.4292 260.7126 13.16594098122830
ONEWEB-0547             
1 56049U 23043D   25258.54721255  .00000051  00000+0  91718-4 0  9994
2 56049  87.9202 298.7807 0001794  97.4459 262.6879 13.21825283121946
ONEWEB-0548             
1 56050U 23043E   25258.54791731 -.00000012  00000+0 -64732-4 0  9997
2 56050  87.8970 283.5171 0002048  78.4490 281.6871 13.16595992122828
ONEWEB-0549             
1 56051U 23043F   25258.53853756  .00000058  00000+0  10855-3 0  9997
2 56051  87.9205 298.7976 0001741 101.7381 258.3948 13.21827117121941
ONEWEB-0550             
1 56052U 23043G   25258.60161335  .00000095  00000+0  19873-3 0  9991
2 56052  87.9205 298.7792 0002036  90.9499 269.1869 13.21824522121955
ONEWEB-0551             
1 56053U 23043H   25258.58826770 -.00000002  00000+0 -39587-4 0  9995
2 56053  87.9026 314.0308 0001668 100.1510 259.9808 13.15550237120298
ONEWEB-0552             
1 56054U 23043J   25258.59531059  .00000074  00000+0  14689-3 0  9992
2 56054  87.9203 298.7893 0001647  93.1309 267.0014 13.21826391121954
ONEWEB-0553             
1 56055U 23043K   25258.60492397  .00000066  00000+0  13795-3 0  9994
2 56055  87.8981 283.4992 0002290  93.2578 266.8815 13.16594441122849
ONEWEB-0554             
1 56056U 23043L   25258.59225892  .00000065  00000+0  13748-3 0  9994
2 56056  87.8972 283.5258 0002006  85.6886 274.4474 13.16593266122826
